{"fetched_at":"2026-03-29T16:36:15Z","count":15609,"tles":[{"name":"ONEWEB-0692","line1":"1 61600U 24188G   26087.87570049 -.00000365  00000+0 -10653-2 0  9991","line2":"2 61600  87.8892  37.0505 0002546  67.3596 292.7801 13.11416273 73941","category":"Other"}]}