{
  "norad_id": 61600,
  "name": "ONEWEB-0692",
  "history": [
    {
      "epoch": "2026-03-28T21:01:00.522336Z",
      "apogee_km": 1219.6191895783795,
      "perigee_km": 1215.75139686667,
      "latitude_deg": 2.8586795694566365e-06,
      "longitude_deg": -104.49154200091331,
      "height_km": 1219.8259090816898,
      "semi_major_axis_km": 7595.822293222524,
      "eccentricity": 0.0002546,
      "inclination_deg": 87.8892,
      "raan_deg": 37.0505,
      "arg_perigee_deg": 67.3596,
      "mean_anomaly_deg": 292.7801,
      "mean_motion_rev_day": 13.11416273
    }
  ]
}